STARLINK-35244          
1 65829U 25221G   25299.48531190  .00053869  00000+0  13473-2 0  9990
2 65829  53.1604 354.7642 0001458  73.1928 286.9237 15.39617236  5454
STARLINK-35368          
1 65830U 25221H   25299.47871325  .00081627  00000+0  14598-2 0  9990
2 65830  53.1597 353.2653 0000959  73.0608 287.0506 15.49321702  5476
STARLINK-35337          
1 65831U 25221J   25299.54390975  .00043235  00000+0  78091-3 0  9998
2 65831  53.1599 352.9627 0001170  86.1150 273.9993 15.49317005  5520
STARLINK-35277          
1 65832U 25221K   25299.47905694  .00070926  00000+0  12708-2 0  9990
2 65832  53.1597 353.2688 0001356 100.3723 259.7439 15.49329871  5511
STARLINK-35345          
1 65833U 25221L   25299.47836824  .00077628  00000+0  13885-2 0  9992
2 65833  53.1598 353.2627 0000901  95.0219 265.0893 15.49339356  5514
STARLINK-35320          
1 65834U 25221M   25299.54219361  .00079769  00000+0  14267-2 0  9995
2 65834  53.1596 352.9507 0001376  75.9637 284.1524 15.49329572  4177
STARLINK-35349          
1 65835U 25221N   25299.54253875  .00076643  00000+0  13720-2 0  9995
2 65835  53.1597 352.9518 0002082  68.0978 292.0252 15.49319825  4173
STARLINK-35356          
1 65836U 25221P   25299.54185159  .00084587  00000+0  15119-2 0  9995
2 65836  53.1597 352.9468 0001821  61.4351 298.6841 15.49320614  4174
STARLINK-35314          
1 65837U 25221Q   25299.54082110  .00042391  00000+0  76597-3 0  9994
2 65837  53.1597 352.9412 0001993  55.7031 304.4167 15.49313639  4171
STARLINK-35324          
1 65838U 25221R   25299.54116488  .00068578  00000+0  12298-2 0  9993
2 65838  53.1597 352.9432 0002026  54.5054 305.6144 15.49319967  4172
STARLINK-35102          
1 65839U 25221S   25299.54047718  .00074222  00000+0  13293-2 0  9992
2 65839  53.1597 352.9375 0001689  67.1811 292.9376 15.49320994  4171
STARLINK-35364          
1 65840U 25221T   25299.54013287  .00084758  00000+0  15146-2 0  9992
2 65840  53.1598 352.9356 0001560  60.4630 299.6535 15.49326686  4171
